{
    "links": {
        "self": "http://www.neowsapp.com/rest/v1/neo/3799716?api_key=iIulBulltgU6a56xZRHN4H3l9WmuAYTsLGpBGhQ2"
    },
    "id": "3799716",
    "neo_reference_id": "3799716",
    "name": "(2018 DC1)",
    "designation": "2018 DC1",
    "nasa_jpl_url": "http://ssd.jpl.nasa.gov/sbdb.cgi?sstr=3799716",
    "absolute_magnitude_h": 23.1,
    "estimated_diameter": {
        "kilometers": {
            "estimated_diameter_min": 0.063760979,
            "estimated_diameter_max": 0.1425738833
        },
        "meters": {
            "estimated_diameter_min": 63.7609789875,
            "estimated_diameter_max": 142.5738833281
        },
        "miles": {
            "estimated_diameter_min": 0.0396192233,
            "estimated_diameter_max": 0.0885912765
        },
        "feet": {
            "estimated_diameter_min": 209.1895703015,
            "estimated_diameter_max": 467.7620993781
        }
    },
    "is_potentially_hazardous_asteroid": false,
    "close_approach_data": [
        {
            "close_approach_date": "2018-02-22",
            "close_approach_date_full": "2018-Feb-22 23:59",
            "epoch_date_close_approach": 1519343940000,
            "relative_velocity": {
                "kilometers_per_second": "18.7023594262",
                "kilometers_per_hour": "67328.493934419",
                "miles_per_hour": "41835.3078005283"
            },
            "miss_distance": {
                "astronomical": "0.2249550489",
                "lunar": "87.5075140221",
                "kilometers": "33652796.161185843",
                "miles": "20910877.8842689134"
            },
            "orbiting_body": "Earth"
        }
    ],
    "orbital_data": {
        "orbit_id": "2",
        "orbit_determination_date": "2018-03-20 06:42:23",
        "first_observation_date": "2018-02-23",
        "last_observation_date": "2018-03-19",
        "data_arc_in_days": 24,
        "observations_used": 40,
        "orbit_uncertainty": "9",
        "minimum_orbit_intersection": ".21921",
        "jupiter_tisserand_invariant": "4.834",
        "epoch_osculation": "2458176.5",
        "eccentricity": ".1156377991313833",
        "semi_major_axis": "1.28499196841385",
        "inclination": "37.39385997837589",
        "ascending_node_longitude": "156.2081442978119",
        "orbital_period": "532.0458336668223",
        "perihelion_distance": "1.136398325284968",
        "perihelion_argument": "293.4212140302458",
        "aphelion_distance": "1.433585611542731",
        "perihelion_time": "2458091.870815495893",
        "mean_anomaly": "57.26293581044608",
        "mean_motion": ".6766334349785345",
        "equinox": "J2000",
        "orbit_class": {
            "orbit_class_type": "AMO",
            "orbit_class_description": "Near-Earth asteroid orbits similar to that of 1221 Amor",
            "orbit_class_range": "1.017 AU < q (perihelion) < 1.3 AU"
        }
    },
    "is_sentry_object": false
}